OPS 6582 (TRANSIT 5B-5) 
1 00965U 64083D   21089.58283728  .00000056  00000-0  64860-4 0  9993
2 00965  90.0258 194.2291 0042841  87.0572 284.8118 13.56753178785448
OSCAR 7 (AO-7)          
1 07530U 74089B   21089.57818586 -.00000045  00000-0  11517-5 0  9991
2 07530 101.8467  64.1887 0012202 172.1515 300.0002 12.53648018121846
UOSAT 2 (UO-11)         
1 14781U 84021B   21089.46634106  .00000163  00000-0  26015-4 0  9994
2 14781  97.5932  93.1987 0008091 351.8882   8.2201 14.83264911974224
NOAA 9                  
1 15427U 84123A   21089.54850135 -.00000003  00000-0  21307-4 0  9999
2 15427  98.9851  51.5739 0014705 348.8031 123.5839 14.16126814873783
LUSAT (LO-19)           
1 20442U 90005G   21089.79531206  .00000014  00000-0  21468-4 0  9999
2 20442  98.7327  44.5830 0012469  36.9264 323.2775 14.32980972629625
ITAMSAT (IO-26)         
1 22826U 93061D   21089.51802119 -.00000007  00000-0  15223-4 0  9991
2 22826  98.9174 105.0915 0007946 249.6383 110.3945 14.30448191434944
RADIO ROSTO (RS-15)     
1 23439U 94085A   21089.59144155 -.00000037  00000-0  15882-3 0  9999
2 23439  64.8136 143.5044 0158694 349.3359  10.4214 11.27570557 81440
JAS-2 (FO-29)           
1 24278U 96046B   21089.47771648 -.00000050  00000-0 -13769-4 0  9999
2 24278  98.5733 167.8942 0350230 354.4267   5.3020 13.53102322215562
NOAA 15                 
1 25338U 98030A   21089.78209372  .00000032  00000-0  31900-4 0  9991
2 25338  98.6911 118.9785 0011128 145.3349 214.8558 14.26019722190038
TECHSAT 1B (GO-32)      
1 25397U 98043D   21089.83416279 -.00000000  00000-0  19410-4 0  9990
2 25397  98.7635  35.6343 0000903   9.1319 350.9876 14.23704441180529
ISS (ZARYA)             
1 25544U 98067A   21089.84459302  .00001374  00000-0  33141-4 0  9996
2 25544  51.6471  10.2084 0003129 161.4994 303.7525 15.48963886276457
ORSTED                  
1 25635U 99008B   21089.33220907  .00000125  00000-0  36950-4 0  9998
2 25635  96.4669  52.3844 0139192 157.5534 203.1836 14.48274795165998
PHASE 3D (AO-40)        
1 26609U 00072B   21088.50926585 -.00000365  00000-0  00000-0 0  9996
2 26609   9.1898 335.6769 7945399 239.3096  20.7625  1.25586262 93581
PCSAT (NO-44)           
1 26931U 01043C   21089.52821038 -.00000006  00000-0  29426-4 0  9992
2 26931  67.0498 124.1274 0007398 265.8893  94.1362 14.30611862 17944
SAUDISAT 1C (SO-50)     
1 27607U 02058C   21089.55644654  .00000058  00000-0  28763-4 0  9999
2 27607  64.5552 219.5994 0032539  52.2605 308.1439 14.75728863982910
CUTE-1 (CO-55)          
1 27844U 03031E   21089.54571330  .00000057  00000-0  45421-4 0  9992
2 27844  98.6830  98.9473 0008926 312.0027  48.0390 14.22297653920760
CUBESAT XI-IV (CO-57)   
1 27848U 03031J   21089.51546950  .00000046  00000-0  40526-4 0  9992
2 27848  98.6889  99.4850 0009034 326.4389  33.6215 14.21876082920599
MOZHAYETS 4 (RS-22)     
1 27939U 03042A   21089.73793000  .00000180  00000-0  40776-4 0  9995
2 27939  98.1259 227.4419 0013455 163.2333 196.9324 14.66961886935987
INMARSAT 4-F1           
1 28628U 05009A   21089.48873912 -.00000268  00000-0  00000-0 0  9999
2 28628   3.3233  30.1824 0003109 351.7054 125.6402  1.00272165 58577
NOAA 18                 
1 28654U 05018A   21089.82416787  .00000109  00000-0  83469-4 0  9996
2 28654  99.0022 154.3493 0015075 141.5170 218.7079 14.12593506817438
CUBESAT XI-V            
1 28895U 05043F   21089.82191077  .00000191  00000-0  45428-4 0  9997
2 28895  98.0451 224.8367 0018142  98.2466 262.0795 14.63885932822736
METOP-A                 
1 29499U 06044A   21089.86824920 -.00000003  00000-0  17859-4 0  9994
2 29499  98.4827 132.2366 0001555 115.4616  56.9761 14.21502583749573
CARTOSAT-2 (IRS-P7)     
1 29710U 07001B   21089.80334517  .00003720  00000-0  11571-3 0  9998
2 29710  97.8777 168.5867 0173149 159.0805 201.7629 15.20615790768699
FALCONSAT-3             
1 30776U 07006E   21089.55450596  .00005755  00000-0  14149-3 0  9999
2 30776  35.4338 247.0264 0003272 270.3798  89.6554 15.40038198780939
CAPE-1                  
1 31130U 07012P   21089.05894282  .00000168  00000-0  46168-4 0  9990
2 31130  98.2276  29.1510 0094720 230.0150 129.2704 14.56654151740391
CARTOSAT-2A             
1 32783U 08021A   21089.71058735 -.00000122  00000-0 -96035-5 0  9995
2 32783  97.8814 150.5993 0013631 157.2837 202.8964 14.78695723697444
CUTE-1.7+APD II (CO-65) 
1 32785U 08021C   21089.01949961  .00000388  00000-0  47200-4 0  9991
2 32785  97.6050  70.9783 0011397 266.5700  93.4214 14.88669992700355
COMPASS-1               
1 32787U 08021E   21089.70239406  .00000506  00000-0  52440-4 0  9999
2 32787  97.5265  83.8919 0011989 185.8523 174.2559 14.94024139701829
AAUSAT-II               
1 32788U 08021F   21089.40469670  .00001293  00000-0  12168-3 0  9991
2 32788  97.5035  87.3916 0011988 167.2114 192.9414 14.95467219702043
DELFI-C3 (DO-64)        
1 32789U 08021G   21089.36436435  .00002056  00000-0  13483-3 0  9999
2 32789  97.3852 127.7570 0013267  60.3658 299.8890 15.08685769704901
SEEDS II (CO-66)        
1 32791U 08021J   21088.92306758  .00000603  00000-0  65847-4 0  9995
2 32791  97.5664  76.8718 0011969 226.9334 133.0884 14.91329677700927
YUBILEINY (RS-30)       
1 32953U 08025A   21089.75679747  .00000028  00000-0  12906-3 0  9990
2 32953  82.4995  99.8776 0020152 145.3498 214.8896 12.43100939583209
FENGYUN 3A              
1 32958U 08026A   21089.77537337  .00000003  00000-0  21122-4 0  9990
2 32958  98.4430  67.1717 0007867 221.9221 138.1354 14.18651309665429
PRISM (HITOMI)          
1 33493U 09002B   21089.82174845  .00001374  00000-0  12314-3 0  9991
2 33493  98.1802  48.6214 0014957 181.4495 178.6685 14.97524928662562
STARS (KUKAI)           
1 33498U 09002G   21089.66617189  .00000310  00000-0  49101-4 0  9995
2 33498  98.2256 327.9925 0009691 236.3191 123.7096 14.79308667656239
KKS-1 (KISEKI)          
1 33499U 09002H   21089.47588948  .00000144  00000-0  29088-4 0  9992
2 33499  98.2810 317.6366 0007920 297.5745  62.4658 14.75634862654762
NOAA 19                 
1 33591U 09005A   21089.85073326  .00000017  00000-0  34559-4 0  9997
2 33591  99.1903 108.5844 0013782 357.1770   2.9321 14.12457943625825
SWISSCUBE               
1 35932U 09051B   21089.49123666  .00000171  00000-0  49505-4 0  9990
2 35932  98.6077 287.0041 0007067 338.7625  21.3278 14.56507113611461
BEESAT-1                
1 35933U 09051C   21089.52876886  .00000148  00000-0  44323-4 0  9991
2 35933  98.6049 288.8849 0005557 355.0561   5.0580 14.56568596611545
ITUPSAT1                
1 35935U 09051E   21089.48600634  .00000126  00000-0  40058-4 0  9991
2 35935  98.6153 288.9943 0007850 352.2148   7.8926 14.55703797611285
XIWANG-1 (HOPE-1)       
1 36122U 09072B   21089.56126475 -.00000050  00000-0 -20583-4 0  9997
2 36122 100.1241  73.5134 0006877 286.1196  73.9161 13.16359367542517
CARTOSAT-2B             
1 36795U 10035A   21089.67876191  .00000128  00000-0  24421-4 0  9992
2 36795  97.8787 149.9910 0012549 234.5317 125.4725 14.78714438578482
TISAT 1                 
1 36799U 10035E   21089.43294384  .00000410  00000-0  46870-4 0  9994
2 36799  98.2067 277.0461 0013446 110.8626 249.4032 14.91657782581555
FENGYUN 3B              
1 37214U 10059A   21089.74328644  .00000027  00000-0  37062-4 0  9991
2 37214  99.0766  82.3341 0017068 173.2203 186.9203 14.15980933538195
JUGNU                   
1 37839U 11058B   21089.84417222  .00000322  00000-0  29512-4 0  9995
2 37839  19.9623 345.9415 0018783 305.6328 120.6095 14.12708498489443
SRMSAT                  
1 37841U 11058D   21089.57301318  .00000304  00000-0  21555-4 0  9995
2 37841  19.9726  57.8283 0012019 146.5267  10.3488 14.10689316488548
M-CUBED & EXP-1 PRIME   
1 37855U 11061F   21089.11063284  .00001741  00000-0  91349-4 0  9995
2 37855 101.7192 331.3817 0167613 306.7258  51.8659 15.07389308514224
HORYU-2                 
1 38340U 12025D   21089.44072830  .00000275  00000-0  47721-4 0  9995
2 38340  98.2405 155.3002 0011080 201.5758 158.4985 14.76002260466736
METOP-B                 
1 38771U 12049A   21089.83388653 -.00000001  00000-0  19412-4 0  9999
2 38771  98.6880 150.9719 0000699 199.6248 251.5819 14.21501676442703
SARAL                   
1 39086U 13009A   21089.50704303 -.00000005  00000-0  14212-4 0  9991
2 39086  98.5457 276.7364 0001943 109.1058 251.0336 14.32047755422941
AAUSAT 3                
1 39087U 13009B   21089.56811536  .00000176  00000-0  75570-4 0  9997
2 39087  98.4313 294.6170 0012725 146.9425 213.2556 14.35912872423874
STRAND-1                
1 39090U 13009E   21089.48563799  .00000036  00000-0  27566-4 0  9994
2 39090  98.4347 293.5215 0009724 147.4285 212.7503 14.35172263423719
BRITE-AUSTRIA           
1 39091U 13009F   21089.81954351  .00000010  00000-0  18444-4 0  9997
2 39091  98.4346 292.9771 0010987 153.6073 206.5675 14.35180086423809
UNIBRITE                
1 39092U 13009G   21089.52248825  .00000028  00000-0  24819-4 0  9990
2 39092  98.4374 292.3835 0009964 148.9906 211.1870 14.35051694423712
SOMP                    
1 39134U 13015E   21089.81507671  .00002486  00000-0  11642-3 0  9992
2 39134  64.8635  68.1312 0005448 247.4645 112.5907 15.22236941439622
BEESAT-3                
1 39135U 13015F   21089.78188305  .00001914  00000-0  10014-3 0  9995
2 39135  64.8656  96.1497 0008321 201.6810 158.3966 15.19107553439085
BEESAT-2                
1 39136U 13015G   21089.81278071  .00001586  00000-0  85570-4 0  9995
2 39136  64.8733 102.1212 0028407 251.5974 108.2063 15.18483918438977
NEE-01 PEGASO           
1 39151U 13018B   21089.81406253  .00000255  00000-0  40383-4 0  9995
2 39151  97.9734 192.7590 0015687 250.9636 108.9877 14.80311395428044
CUBEBUG-1 (CAPITAN BETO)
1 39153U 13018D   21089.79475834  .00000319  00000-0  48172-4 0  9990
2 39153  97.9873 195.7792 0015611 246.1693 113.7883 14.80886333428167
